FLOCK 3P-62             
1 42036U 17008CS  17073.68356064  .00002276  00000-0  10213-3 0  9994
2 42036  97.5075 135.2797 0008270 175.0448 185.0865 15.22203228  3339
